CTC2_L_00423016-03
1 10062U 26610IY  26075.70046296  .00000000  00000+0  00000-0 0  9997
2 10062  55.0000 180.0000 0000000   0.0000   0.0000 12.53473438    11
CTC2_L_00423016-04
1 10063U 24871FQ  26075.70046296  .00000000  00000+0  00000-0 0  9995
2 10063  55.0000 180.0000 0000000   0.0000  90.0000 12.53473438    11
CTC2_L_00423017-01
1 10064U 23585F   26075.70046296  .00000000  00000+0  00000-0 0  9997
2 10064  55.0000 192.0000 0000000   0.0000 192.0000 12.53473438    18
CTC2_L_00423017-02
1 10065U 22261QA  26075.70046296  .00000000  00000+0  00000-0 0  9998
2 10065  55.0000 192.0000 0000000   0.0000 282.0000 12.53473438    19
CTC2_L_00423017-03
1 10066U 23313RI  26075.70046296  .00000000  00000+0  00000-0 0  9998
2 10066  55.0000 192.0000 0000000   0.0000  12.0000 12.53473438    11
CTC2_L_00423017-04
1 10067U 23212PE  26075.70046296  .00000000  00000+0  00000-0 0  9997
2 10067  55.0000 192.0000 0000000   0.0000 102.0000 12.53473438    12
CTC2_L_00423018-01
1 10068U 24227Q   26075.70046296  .00000000  00000+0  00000-0 0  9995
2 10068  55.0000 204.0000 0000000   0.0000 204.0000 12.53473438    10
CTC2_L_00423018-02
1 10069U 22545NE  26075.70046296  .00000000  00000+0  00000-0 0  9997
2 10069  55.0000 204.0000 0000000   0.0000 294.0000 12.53473438    10
CTC2_L_00423018-03
1 10070U 25065RY  26075.70046296  .00000000  00000+0  00000-0 0  9999
2 10070  55.0000 204.0000 0000000   0.0000  24.0000 12.53473438    13
CTC2_L_00423018-04
1 10071U 26518PZ  26075.70046296  .00000000  00000+0  00000-0 0  9994
2 10071  55.0000 204.0000 0000000   0.0000 114.0000 12.53473438    14
CTC2_L_00423019-01
1 10072U 23491QR  26075.70046296  .00000000  00000+0  00000-0 0  9992
2 10072  55.0000 216.0000 0000000   0.0000 216.0000 12.53473438    11
CTC2_L_00423019-02
1 10073U 25542ZA  26075.70046296  .00000000  00000+0  00000-0 0  9992
2 10073  55.0000 216.0000 0000000   0.0000 306.0000 12.53473438    12
CTC2_L_00423019-03
1 10074U 24311AA  26075.70046296  .00000000  00000+0  00000-0 0  9996
2 10074  55.0000 216.0000 0000000   0.0000  36.0000 12.53473438    13
CTC2_L_00423019-04
1 10075U 23422HG  26075.70046296  .00000000  00000+0  00000-0 0  9999
2 10075  55.0000 216.0000 0000000   0.0000 126.0000 12.53473438    14
CTC2_L_00423020-01
1 10076U 26696NU  26075.70046296  .00000000  00000+0  00000-0 0  9996
2 10076  55.0000 228.0000 0000000   0.0000 228.0000 12.53473438    11
CTC2_L_00423020-02
1 10077U 23675HD  26075.70046296  .00000000  00000+0  00000-0 0  9991
2 10077  55.0000 228.0000 0000000   0.0000 318.0000 12.53473438    12
CTC2_L_00423020-03
1 10078U 26727AO  26075.70046296  .00000000  00000+0  00000-0 0  9993
2 10078  55.0000 228.0000 0000000   0.0000  48.0000 12.53473438    13
CTC2_L_00423020-04
1 10079U 26372JX  26075.70046296  .00000000  00000+0  00000-0 0  9990
2 10079  55.0000 228.0000 0000000   0.0000 138.0000 12.53473438    14
CTC2_L_00423021-01
1 10080U 26871TO  26075.70046296  .00000000  00000+0  00000-0 0  9996
2 10080  55.0000 240.0000 0000000   0.0000 240.0000 12.53473438    14
CTC2_L_00423021-02
1 10081U 24641NW  26075.70046296  .00000000  00000+0  00000-0 0  9990
2 10081  55.0000 240.0000 0000000   0.0000 330.0000 12.53473438    15
CTC2_L_00423021-03
1 10082U 25892GP  26075.70046296  .00000000  00000+0  00000-0 0  9990
2 10082  55.0000 240.0000 0000000   0.0000  60.0000 12.53473438    16
CTC2_L_00423021-04
1 10083U 22657JE  26075.70046296  .00000000  00000+0  00000-0 0  9997
2 10083  55.0000 240.0000 0000000   0.0000 150.0000 12.53473438    17
CTC2_L_00423022-01
1 10084U 23763CU  26075.70046296  .00000000  00000+0  00000-0 0  9997
2 10084  55.0000 252.0000 0000000   0.0000 252.0000 12.53473438    14
CTC2_L_00423022-02
1 10085U 24079DL  26075.70046296  .00000000  00000+0  00000-0 0  9999
2 10085  55.0000 252.0000 0000000   0.0000 342.0000 12.53473438    15
CTC2_L_00423022-03
1 10086U 24582KR  26075.70046296  .00000000  00000+0  00000-0 0  9999
2 10086  55.0000 252.0000 0000000   0.0000  72.0000 12.53473438    16
CTC2_L_00423022-04
1 10087U 24683OM  26075.70046296  .00000000  00000+0  00000-0 0  9992
2 10087  55.0000 252.0000 0000000   0.0000 162.0000 12.53473438    17
CTC2_L_00423023-01
1 10088U 23440TO  26075.70046296  .00000000  00000+0  00000-0 0  9993
2 10088  55.0000 264.0000 0000000   0.0000 264.0000 12.53473438    14
CTC2_L_00423023-02
1 10089U 26731OP  26075.70046296  .00000000  00000+0  00000-0 0  9990
2 10089  55.0000 264.0000 0000000   0.0000 354.0000 12.53473438    15
CTC2_L_00423023-03
1 10090U 25201JV  26075.70046296  .00000000  00000+0  00000-0 0  9993
2 10090  55.0000 264.0000 0000000   0.0000  84.0000 12.53473438    17
CTC2_L_00423023-04
1 10091U 26469OZ  26075.70046296  .00000000  00000+0  00000-0 0  9991
2 10091  55.0000 264.0000 0000000   0.0000 174.0000 12.53473438    18
CTC2_L_00423024-01
1 10092U 24379LM  26075.70046296  .00000000  00000+0  00000-0 0  9990
2 10092  55.0000 276.0000 0000000   0.0000 276.0000 12.53473438    15
CTC2_L_00423024-02
1 10093U 25319OU  26075.70046296  .00000000  00000+0  00000-0 0  9996
2 10093  55.0000 276.0000 0000000   0.0000   6.0000 12.53473438    17
CTC2_L_00423024-03
1 10094U 24357HL  26075.70046296  .00000000  00000+0  00000-0 0  9998
2 10094  55.0000 276.0000 0000000   0.0000  96.0000 12.53473438    17
CTC2_L_00423024-04
1 10095U 26276LC  26075.70046296  .00000000  00000+0  00000-0 0  9991
2 10095  55.0000 276.0000 0000000   0.0000 186.0000 12.53473438    18
CTC2_L_00423025-01
1 10096U 26070AG  26075.70046296  .00000000  00000+0  00000-0 0  9994
2 10096  55.0000 288.0000 0000000   0.0000 288.0000 12.53473438    15
CTC2_L_00423025-02
1 10097U 22163XW  26075.70046296  .00000000  00000+0  00000-0 0  9994
2 10097  55.0000 288.0000 0000000   0.0000  18.0000 12.53473438    17
CTC2_L_00423025-03
1 10098U 26333YR  26075.70046296  .00000000  00000+0  00000-0 0  9998
2 10098  55.0000 288.0000 0000000   0.0000 108.0000 12.53473438    18
CTC2_L_00423025-04
1 10099U 23194ZQ  26075.70046296  .00000000  00000+0  00000-0 0  9991
2 10099  55.0000 288.0000 0000000   0.0000 198.0000 12.53473438    18
CTC2_L_00423026-01
1 10100U 23135ZN  26075.70046296  .00000000  00000+0  00000-0 0  9999
2 10100  55.0000 300.0000 0000000   0.0000 300.0000 12.53473438    11
CTC2_L_00423026-02
1 10101U 25576UL  26075.70046296  .00000000  00000+0  00000-0 0  9991
2 10101  55.0000 300.0000 0000000   0.0000  30.0000 12.53473438    12
CTC2_L_00423026-03
1 10102U 26693ZF  26075.70046296  .00000000  00000+0  00000-0 0  9993
2 10102  55.0000 300.0000 0000000   0.0000 120.0000 12.53473438    13
CTC2_L_00423026-04
1 10103U 23720NF  26075.70046296  .00000000  00000+0  00000-0 0  9992
2 10103  55.0000 300.0000 0000000   0.0000 210.0000 12.53473438    14
CTC2_L_00423027-01
1 10104U 24702BC  26075.70046296  .00000000  00000+0  00000-0 0  9994
2 10104  55.0000 312.0000 0000000   0.0000 312.0000 12.53473438    11
CTC2_L_00423027-02
1 10105U 25792JK  26075.70046296  .00000000  00000+0  00000-0 0  9995
2 10105  55.0000 312.0000 0000000   0.0000  42.0000 12.53473438    12
CTC2_L_00423027-03
1 10106U 22315VA  26075.70046296  .00000000  00000+0  00000-0 0  9994
2 10106  55.0000 312.0000 0000000   0.0000 132.0000 12.53473438    13
CTC2_L_00423027-04
1 10107U 22354SG  26075.70046296  .00000000  00000+0  00000-0 0  9998
2 10107  55.0000 312.0000 0000000   0.0000 222.0000 12.53473438    14
CTC2_L_00423028-01
1 10108U 25833OW  26075.70046296  .00000000  00000+0  00000-0 0  9994
2 10108  55.0000 324.0000 0000000   0.0000 324.0000 12.53473438    11
CTC2_L_00423028-02
1 10109U 22870MV  26075.70046296  .00000000  00000+0  00000-0 0  9993
2 10109  55.0000 324.0000 0000000   0.0000  54.0000 12.53473438    12
CTC2_L_00423028-03
1 10110U 23320QY  26075.70046296  .00000000  00000+0  00000-0 0  9996
2 10110  55.0000 324.0000 0000000   0.0000 144.0000 12.53473438    14
CTC2_L_00423028-04
1 10111U 23749VR  26075.70046296  .00000000  00000+0  00000-0 0  9992
2 10111  55.0000 324.0000 0000000   0.0000 234.0000 12.53473438    15
CTC2_L_00423029-01
1 10112U 24670RN  26075.70046296  .00000000  00000+0  00000-0 0  9997
2 10112  55.0000 336.0000 0000000   0.0000 336.0000 12.53473438    12
CTC2_L_00423029-02
1 10113U 24191DJ  26075.70046296  .00000000  00000+0  00000-0 0  9996
2 10113  55.0000 336.0000 0000000   0.0000  66.0000 12.53473438    13
CTC2_L_00423029-03
1 10114U 25177VS  26075.70046296  .00000000  00000+0  00000-0 0  9992
2 10114  55.0000 336.0000 0000000   0.0000 156.0000 12.53473438    14
CTC2_L_00423029-04
1 10115U 26126KG  26075.70046296  .00000000  00000+0  00000-0 0  9998
2 10115  55.0000 336.0000 0000000   0.0000 246.0000 12.53473438    15
CTC2_L_00423030-01
1 10116U 26569OU  26075.70046296  .00000000  00000+0  00000-0 0  9990
2 10116  55.0000 348.0000 0000000   0.0000 348.0000 12.53473438    12
CTC2_L_00423030-02
1 10117U 23057XZ  26075.70046296  .00000000  00000+0  00000-0 0  9990
2 10117  55.0000 348.0000 0000000   0.0000  78.0000 12.53473438    13
CTC2_L_00423030-03
1 10118U 25338CA  26075.70046296  .00000000  00000+0  00000-0 0  9995
2 10118  55.0000 348.0000 0000000   0.0000 168.0000 12.53473438    14
CTC2_L_00423030-04
1 10119U 22483UR  26075.70046296  .00000000  00000+0  00000-0 0  9994
2 10119  55.0000 348.0000 0000000   0.0000 258.0000 12.53473438    15
